ONEWEB-0650             
1 55813U 23029T   23360.41736230  .00000074  00000+0  15185-3 0  9991
2 55813  87.9206 124.8663 0001934 115.5232 244.6101 13.19725973 39694
ONEWEB-0652             
1 55814U 23029U   23360.34690515 -.00000070  00000+0 -22230-3 0  9996
2 55814  87.8988 109.6210 0001473 102.8460 257.2834 13.14504943 40625
ONEWEB-0653             
1 55815U 23029V   23360.33103801 -.00000083  00000+0 -25863-3 0  9992
2 55815  87.8993 109.5999 0001260 111.1079 249.0185 13.14501476 40657
ONEWEB-0654             
1 55816U 23029W   23360.32627971  .00000012  00000+0 -22041-5 0  9999
2 55816  87.8989 109.6159 0001190  88.3496 271.7770 13.14505161 40671
ONEWEB-0656             
1 55817U 23029X   23360.27406415  .00000116  00000+0  25414-3 0  9991
2 55817  87.9205  94.3396 0001953  84.8398 275.2959 13.20775040 41835
ONEWEB-0657             
1 55818U 23029Y   23360.41262432  .00000048  00000+0  87877-4 0  9993
2 55818  87.9208 124.8729 0002354  85.8819 274.2583 13.19725145 39707
ONEWEB-0658             
1 55819U 23029Z   23360.40787674  .00000070  00000+0  14236-3 0  9996
2 55819  87.9205 124.8105 0002046 120.5649 239.5685 13.19723989 39711
ONEWEB-0660             
1 55820U 23029AA  23360.38018681  .00000213  00000+0  53904-3 0  9994
2 55820  87.8989 109.5807 0001510 129.5695 230.5569 13.14507073 40662
